OBJECT_NAME,OBJECT_ID,EPOCH,MEAN_MOTION,ECCENTRICITY,INCLINATION,RA_OF_ASC_NODE,ARG_OF_PERICENTER,MEAN_ANOMALY,EPHEMERIS_TYPE,CLASSIFICATION_TYPE,NORAD_CAT_ID,ELEMENT_SET_NO,REV_AT_EPOCH,BSTAR,MEAN_MOTION_DOT,MEAN_MOTION_DDOT
SL-16 R/B,1994-077B,2026-07-11T18:46:34.653792,14.15575013,.00040716,70.9825,91.4198,305.9931,54.0814,0,U,23405,999,63379,-.10506866E-3,-.254E-5,0
ARIANE 40+ R/B,1995-021B,2026-07-11T19:16:30.916704,14.39846419,.00078055,98.4402,262.5213,125.2176,345.1722,0,U,23561,999,63710,.49916732E-4,.113E-5,0
SL-16 R/B,1995-058B,2026-07-11T15:41:43.088352,14.15508016,.00146094,71.0213,279.9902,287.4123,72.5403,0,U,23705,999,58539,.1351148E-5,-.45E-6,0
SL-16 R/B,1996-051B,2026-07-11T16:14:10.689504,14.12455063,.00175309,70.7649,272.8234,302.7368,57.2061,0,U,24298,999,53915,.99392092E-4,.134E-5,0
ORBVIEW 2 (SEASTAR),1997-037A,2026-07-11T09:57:00.863712,14.35565701,.00031792,98.8709,0.1077,68.4004,291.7519,0,U,24883,999,52622,.59286711E-4,.124E-5,0
SL-16 R/B,1998-043G,2026-07-11T18:42:21.439584,14.26072361,.00102163,98.8378,147.1519,20.9675,339.1921,0,U,25400,999,45667,.16336917E-4,-.6E-7,0
SL-16 R/B,1998-045B,2026-07-11T16:11:35.130624,14.16206532,.00083595,71.0117,280.8322,211.6451,148.4171,0,U,25407,999,44465,-.10484307E-3,-.255E-5,0
ISS (ZARYA),1998-067A,2026-07-11T07:33:23.712192,15.48978902,.00066885,51.6302,180.6822,282.4935,77.5305,0,U,25544,999,57549,.10843416E-3,.5525E-4,0
CZ-4B R/B,1999-025C,2026-07-11T18:27:59.501952,14.18287291,.00368255,98.6473,233.9878,349.7088,124.0630,0,U,25732,999,40575,.22756786E-4,.4E-7,0
OKEAN-O,1999-039A,2026-07-11T16:17:25.770336,14.80494875,.00009585,97.9303,251.1939,80.2174,279.9147,0,U,25860,999,45273,.43072697E-4,.278E-5,0
SL-16 R/B,1999-039B,2026-07-11T17:53:17.700000,14.81868665,.00140581,97.9824,251.5368,210.0623,149.9784,0,U,25861,999,45523,.38296691E-4,.249E-5,0
DELTA 2 R/B,1999-041E,2026-07-11T09:10:59.770272,14.12074081,.05012966,51.7614,167.1310,353.4998,5.9590,0,U,25876,999,38050,.24565568E-3,.129E-4,0
HELIOS 1B,1999-064A,2026-07-11T15:43:35.632128,14.88069884,.00021011,98.1590,98.5013,58.1999,301.9421,0,U,25977,999,70369,.84193448E-4,.715E-5,0
TERRA,1999-068A,2026-07-11T17:59:20.600736,14.61122004,.00032723,97.9443,241.3204,129.5393,344.3700,0,U,25994,999,41319,.48869925E-4,.196E-5,0
SL-16 R/B,2000-006B,2026-07-11T10:33:04.328352,14.15839011,.00170456,71.0002,197.6297,345.1977,14.8645,0,U,26070,999,36607,-.97423596E-4,-.24E-5,0
TITAN 4B R/B,2000-047B,2026-07-11T18:18:47.915712,15.10323161,.00459158,67.9872,51.3907,262.1435,97.4502,0,U,26474,999,41164,.90117514E-4,.1374E-4,0
ENVISAT,2002-009A,2026-07-11T19:01:47.640864,14.39070277,.0001345,98.3845,143.5643,83.9757,335.9994,0,U,27386,999,27702,.20109659E-4,.19E-6,0
IDEFIX & ARIANE 42P R/B,2002-021B,2026-07-11T17:46:04.632096,14.31092825,.00116759,98.5942,129.9578,176.4766,183.6502,0,U,27422,999,26176,.49615197E-4,.87E-6,0
AQUA,2002-022A,2026-07-11T18:27:23.181984,14.62194025,.00008276,98.4293,162.5457,106.7798,12.4331,0,U,27424,999,28686,.87438384E-4,.391E-5,0
CZ-4B R/B,2002-024C,2026-07-11T19:04:19.284096,14.14567809,.00506473,98.8688,245.4534,31.5672,81.2186,0,U,27432,999,24678,.22022443E-4,-.1E-7,0
MIDORI II (ADEOS-II),2002-056A,2026-07-11T18:41:03.450624,14.29362052,.00016233,98.7892,152.2493,44.3559,315.7752,0,U,27597,999,22802,.61098247E-4,.11E-5,0
H-2A R/B,2002-056E,2026-07-11T18:50:44.596896,14.33832718,.00706898,98.3326,148.5649,150.9922,271.2226,0,U,27601,999,23189,.55367798E-4,.117E-5,0
CZ-4B R/B,2003-049C,2026-07-11T13:45:55.043136,14.55114583,.00474134,98.6908,192.3920,212.4608,147.3670,0,U,28059,999,20461,.44184923E-4,.142E-5,0
CZ-2C R/B,2004-012C,2026-07-11T18:31:53.766048,15.84468881,.00110553,97.7069,271.3945,201.4409,158.6398,0,U,28222,999,22378,.41970453E-3,.96609E-3,0
SL-16 R/B,2004-021B,2026-07-11T18:27:25.996896,14.14615854,.0006429,71.0025,332.0982,227.8896,132.1681,0,U,28353,999,14038,.76347387E-4,.99E-6,0
CZ-4B R/B,2004-035C,2026-07-11T15:29:30.904512,15.30960838,.00290247,97.3363,225.4469,245.9380,113.8823,0,U,28415,999,19886,.15061431E-3,.4483E-4,0
CZ-2C R/B,2004-046B,2026-07-11T17:34:46.598592,14.27032390,.01399373,98.1922,99.9767,147.5803,213.4073,0,U,28480,999,12619,.30828516E-4,.43E-6,0
ARIANE 5 R/B,2004-049H,2026-07-11T10:43:35.851872,14.85476298,.00828051,98.2738,5.6402,310.5973,48.8055,0,U,28499,999,16416,.38804579E-4,.289E-5,0
CZ-2D R/B,2005-024B,2026-07-11T14:46:39.327744,15.72416912,.00017742,97.3478,213.3121,203.5922,156.5260,0,U,28738,999,15917,.31207872E-3,.41426E-3,0
ALOS (DAICHI),2006-002A,2026-07-11T19:09:04.286592,14.70097932,.0000775,98.1336,148.2909,90.1786,269.9508,0,U,28931,999,9171,.95206132E-4,.522E-5,0
