SL-16 R/B               
1 23405U 94077B   26192.78234553 -.00000254  00000+0 -10507-3 0  9996
2 23405  70.9825  91.4198 0004071 305.9931  54.0814 14.15575013633793
ARIANE 40+ R/B          
1 23561U 95021B   26192.80313561  .00000113  00000+0  49917-4 0  9999
2 23561  98.4402 262.5213 0007805 125.2176 345.1722 14.39846419637101
SL-16 R/B               
1 23705U 95058B   26192.65397093 -.00000045  00000+0  13511-5 0  9991
2 23705  71.0213 279.9902 0014609 287.4123  72.5403 14.15508016585390
SL-16 R/B               
1 24298U 96051B   26192.67651261  .00000134  00000+0  99392-4 0  9993
2 24298  70.7649 272.8234 0017530 302.7368  57.2061 14.12455063539158
ORBVIEW 2 (SEASTAR)     
1 24883U 97037A   26192.41459333  .00000124  00000+0  59287-4 0  9994
2 24883  98.8709   0.1077 0003179  68.4004 291.7519 14.35565701526223
SL-16 R/B               
1 25400U 98043G   26192.77941481 -.00000006  00000+0  16337-4 0  9996
2 25400  98.8378 147.1519 0010216  20.9675 339.1921 14.26072361456671
SL-16 R/B               
1 25407U 98045B   26192.67471216 -.00000255  00000+0 -10484-3 0  9991
2 25407  71.0117 280.8322 0008359 211.6451 148.4171 14.16206532444656
ISS (ZARYA)             
1 25544U 98067A   26192.31485778  .00005525  00000+0  10843-3 0  9998
2 25544  51.6302 180.6822 0006688 282.4935  77.5305 15.48978902575497
CZ-4B R/B               
1 25732U 99025C   26192.76943868  .00000004  00000+0  22757-4 0  9995
2 25732  98.6473 233.9878 0036825 349.7088 124.0630 14.18287291405751
OKEAN-O                 
1 25860U 99039A   26192.67877049  .00000278  00000+0  43073-4 0  9996
2 25860  97.9303 251.1939 0000958  80.2174 279.9147 14.80494875452738
SL-16 R/B               
1 25861U 99039B   26192.74534375  .00000249  00000+0  38297-4 0  9997
2 25861  97.9824 251.5368 0014058 210.0623 149.9784 14.81868665455239
DELTA 2 R/B             
1 25876U 99041E   26192.38263623  .00001290  00000+0  24566-3 0  9991
2 25876  51.7614 167.1310 0501296 353.4998   5.9590 14.12074081380509
HELIOS 1B               
1 25977U 99064A   26192.65527352  .00000715  00000+0  84193-4 0  9994
2 25977  98.1590  98.5013 0002101  58.1999 301.9421 14.88069884703696
TERRA                   
1 25994U 99068A   26192.74954399  .00000196  00000+0  48870-4 0  9997
2 25994  97.9443 241.3204 0003272 129.5393 344.3700 14.61122004413199
SL-16 R/B               
1 26070U 00006B   26192.43963343 -.00000240  00000+0 -97424-4 0  9993
2 26070  71.0002 197.6297 0017045 345.1977  14.8645 14.15839011366074
TITAN 4B R/B            
1 26474U 00047B   26192.76305458  .00001374  00000+0  90118-4 0  9999
2 26474  67.9872  51.3907 0045915 262.1435  97.4502 15.10323161411642
ENVISAT                 
1 27386U 02009A   26192.79291251  .00000019  00000+0  20110-4 0  9990
2 27386  98.3845 143.5643 0001345  83.9757 335.9994 14.39070277277023
IDEFIX & ARIANE 42P R/B 
1 27422U 02021B   26192.74033139  .00000087  00000+0  49615-4 0  9995
2 27422  98.5942 129.9578 0011675 176.4766 183.6502 14.31092825261766
AQUA                    
1 27424U 02022A   26192.76901831  .00000391  00000+0  87438-4 0  9996
2 27424  98.4293 162.5457 0000827 106.7798  12.4331 14.62194025286869
CZ-4B R/B               
1 27432U 02024C   26192.79466764 -.00000001  00000+0  22022-4 0  9998
2 27432  98.8688 245.4534 0050647  31.5672  81.2186 14.14567809246788
MIDORI II (ADEOS-II)    
1 27597U 02056A   26192.77851216  .00000110  00000+0  61098-4 0  9999
2 27597  98.7892 152.2493 0001623  44.3559 315.7752 14.29362052228021
H-2A R/B                
1 27601U 02056E   26192.78523839  .00000117  00000+0  55368-4 0  9993
2 27601  98.3326 148.5649 0070689 150.9922 271.2226 14.33832718231899
CZ-4B R/B               
1 28059U 03049C   26192.57355374  .00000142  00000+0  44185-4 0  9991
2 28059  98.6908 192.3920 0047413 212.4608 147.3670 14.55114583204612
CZ-2C R/B               
1 28222U 04012C   26192.77215007  .00096609  00000+0  41970-3 0  9995
2 28222  97.7069 271.3945 0011055 201.4409 158.6398 15.84468881223784
SL-16 R/B               
1 28353U 04021B   26192.76905089  .00000099  00000+0  76347-4 0  9990
2 28353  71.0025 332.0982 0006429 227.8896 132.1681 14.14615854140385
CZ-4B R/B               
1 28415U 04035C   26192.64549658  .00004483  00000+0  15061-3 0  9993
2 28415  97.3363 225.4469 0029024 245.9380 113.8823 15.30960838198864
CZ-2C R/B               
1 28480U 04046B   26192.73248378  .00000043  00000+0  30829-4 0  9990
2 28480  98.1922  99.9767 0139937 147.5803 213.4073 14.27032390126192
ARIANE 5 R/B            
1 28499U 04049H   26192.44694273  .00000289  00000+0  38805-4 0  9994
2 28499  98.2738   5.6402 0082805 310.5973  48.8055 14.85476298164161
CZ-2D R/B               
1 28738U 05024B   26192.61573296  .00041426  00000+0  31208-3 0  9991
2 28738  97.3478 213.3121 0001774 203.5922 156.5260 15.72416912159179
ALOS (DAICHI)           
1 28931U 06002A   26192.79796628  .00000522  00000+0  95206-4 0  9999
2 28931  98.1336 148.2909 0000775  90.1786 269.9508 14.70097932 91717
